AOBA-VELOX 3            
1 41935U 98067KX  17345.94433181  .00021426  00000-0  19531-3 0  9992
2 41935  51.6372 217.0422 0004475 190.9212 169.1688 15.67833754 51442
